start=new Date('2023-02-28T00:00:00.000Z').valueOf();
sats=[{"DECAY_DATE":null,"FILE":"3846812","SITE":"AFETR","MEAN_ANOMALY":"270.4411","RA_OF_ASC_NODE":"258.1943","SEMIMAJOR_AXIS":"6917.834","TLE_LINE1":"1 54096U 22136AX  23058.85551574  .00004784  00000-0  31831-3 0  9998","PERIOD":"95.437","APOAPSIS":"540.527","EPHEMERIS_TYPE":"0","COUNTRY_CODE":"US","MEAN_MOTION":"15.08855175","TLE_LINE2":"2 54096  53.2156 258.1943 0001197  89.6718 270.4411 15.08855175 20047","EPOCH":"2023-02-27T20:31:56.559936","ELEMENT_SET_NO":"999","TIME_SYSTEM":"UTC","ECCENTRICITY":"0.00011970","RCS_SIZE":"LARGE","GP_ID":"227196637","PERIAPSIS":"538.871","LAUNCH_DATE":"2022-10-20","CLASSIFICATION_TYPE":"U","ARG_OF_PERICENTER":"89.6718","INCLINATION":"53.2156","OBJECT_TYPE":"PAYLOAD","REV_AT_EPOCH":"2004","NORAD_CAT_ID":"54096","BSTAR":"0.00031831000000","MEAN_ELEMENT_THEORY":"SGP4","REF_FRAME":"TEME","CENTER_NAME":"EARTH","MEAN_MOTION_DDOT":"0.0000000000000","OBJECT_ID":"2022-136AX","MEAN_MOTION_DOT":"0.00004784","OBJECT_NAME":"STARLINK-5188"},{"OBJECT_ID":"2022-136AY","MEAN_MOTION_DDOT":"0.0000000000000","MEAN_MOTION_DOT":"-0.00001075","OBJECT_NAME":"STARLINK-5197","NORAD_CAT_ID":"54097","BSTAR":"-0.00004952700000","CENTER_NAME":"EARTH","REF_FRAME":"TEME","MEAN_ELEMENT_THEORY":"SGP4","CLASSIFICATION_TYPE":"U","ARG_OF_PERICENTER":"91.6196","INCLINATION":"53.2147","REV_AT_EPOCH":"2035","OBJECT_TYPE":"PAYLOAD","RCS_SIZE":"LARGE","GP_ID":"227196887","PERIAPSIS":"539.217","LAUNCH_DATE":"2022-10-20","TIME_SYSTEM":"UTC","ELEMENT_SET_NO":"999","EPOCH":"2023-02-27T14:12:28.477728","ECCENTRICITY":"0.00008210","COUNTRY_CODE":"US","EPHEMERIS_TYPE":"0","APOAPSIS":"540.352","MEAN_MOTION":"15.08827201","TLE_LINE2":"2 54097  53.2147 234.4352 0000821  91.6196 268.4890 15.08827201 20356","SEMIMAJOR_AXIS":"6917.920","RA_OF_ASC_NODE":"234.4352","TLE_LINE1":"1 54097U 22136AY  23058.59199627 -.00001075  00000-0 -49527-4 0  9991","PERIOD":"95.438","DECAY_DATE":null,"FILE":"3846812","SITE":"AFETR","MEAN_ANOMALY":"268.4890"},{"DECAY_DATE":null,"FILE":"3846812","SITE":"AFETR","MEAN_ANOMALY":"271.4995","RA_OF_ASC_NODE":"257.8031","SEMIMAJOR_AXIS":"6917.824","TLE_LINE1":"1 54098U 22136AZ  23058.90701494  .00003948  00000-0  26586-3 0  9996","PERIOD":"95.436","APOAPSIS":"540.586","EPHEMERIS_TYPE":"0","COUNTRY_CODE":"US","MEAN_MOTION":"15.08858431","TLE_LINE2":"2 54098  53.2154 257.8031 0001296  88.6146 271.4995 15.08858431 20052","ELEMENT_SET_NO":"999","EPOCH":"2023-02-27T21:46:06.090816","TIME_SYSTEM":"UTC","ECCENTRICITY":"0.00012960","RCS_SIZE":"LARGE","GP_ID":"227197639","LAUNCH_DATE":"2022-10-20","PERIAPSIS":"538.793","CLASSIFICATION_TYPE":"U","ARG_OF_PERICENTER":"88.6146","INCLINATION":"53.2154","OBJECT_TYPE":"PAYLOAD","REV_AT_EPOCH":"2005","NORAD_CAT_ID":"54098","BSTAR":"0.00026586000000","REF_FRAME":"TEME","CENTER_NAME":"EARTH","MEAN_ELEMENT_THEORY":"SGP4","MEAN_MOTION_DDOT":"0.0000000000000","OBJECT_ID":"2022-136AZ","MEAN_MOTION_DOT":"0.00003948","OBJECT_NAME":"STARLINK-5217"},{"SITE":"AFETR","MEAN_ANOMALY":"273.2795","DECAY_DATE":null,"FILE":"3846812","PERIOD":"95.435","SEMIMAJOR_AXIS":"6917.748","RA_OF_ASC_NODE":"258.0493","TLE_LINE1":"1 54099U 22136BA  23058.83341578  .00016844  00000-0  10726-2 0  9999","MEAN_MOTION":"15.08883382","TLE_LINE2":"2 54099  53.2166 258.0493 0001304  86.8347 273.2795 15.08883382 20044","COUNTRY_CODE":"US","EPHEMERIS_TYPE":"0","APOAPSIS":"540.515","ECCENTRICITY":"0.00013040","TIME_SYSTEM":"UTC","ELEMENT_SET_NO":"999","EPOCH":"2023-02-27T20:00:07.123392","PERIAPSIS":"538.711","LAUNCH_DATE":"2022-10-20","RCS_SIZE":"LARGE","GP_ID":"227198389","INCLINATION":"53.2166","ARG_OF_PERICENTER":"86.8347","REV_AT_EPOCH":"2004","OBJECT_TYPE":"PAYLOAD","CLASSIFICATION_TYPE":"U","BSTAR":"0.00107260000000","MEAN_ELEMENT_THEORY":"SGP4","CENTER_NAME":"EARTH","REF_FRAME":"TEME","NORAD_CAT_ID":"54099","OBJECT_NAME":"STARLINK-5198","OBJECT_ID":"2022-136BA","MEAN_MOTION_DDOT":"0.0000000000000","MEAN_MOTION_DOT":"0.00016844"},{"RCS_SIZE":"LARGE","GP_ID":"227197137","LAUNCH_DATE":"2022-10-20","PERIAPSIS":"539.007","CLASSIFICATION_TYPE":"U","INCLINATION":"53.2146","ARG_OF_PERICENTER":"98.8966","OBJECT_TYPE":"PAYLOAD","REV_AT_EPOCH":"2001","NORAD_CAT_ID":"54100","BSTAR":"0.00021829000000","REF_FRAME":"TEME","MEAN_ELEMENT_THEORY":"SGP4","CENTER_NAME":"EARTH","MEAN_MOTION_DDOT":"0.0000000000000","OBJECT_ID":"2022-136BB","MEAN_MOTION_DOT":"0.00003189","OBJECT_NAME":"STARLINK-5185","DECAY_DATE":null,"FILE":"3846812","SITE":"AFETR","MEAN_ANOMALY":"261.2140","RA_OF_ASC_NODE":"259.0388","SEMIMAJOR_AXIS":"6917.841","TLE_LINE1":"1 54100U 22136BB  23058.64942721  .00003189  00000-0  21829-3 0  9993","PERIOD":"95.437","APOAPSIS":"540.406","EPHEMERIS_TYPE":"0","COUNTRY_CODE":"US","MEAN_MOTION":"15.08852850","TLE_LINE2":"2 54100  53.2146 259.0388 0001011  98.8966 261.2140 15.08852850 20018","EPOCH":"2023-02-27T15:35:10.510944","ELEMENT_SET_NO":"999","TIME_SYSTEM":"UTC","ECCENTRICITY":"0.00010110"},{"INCLINATION":"53.2182","ARG_OF_PERICENTER":"98.7961","OBJECT_TYPE":"PAYLOAD","REV_AT_EPOCH":"2024","CLASSIFICATION_TYPE":"U","PERIAPSIS":"539.058","LAUNCH_DATE":"2022-10-20","GP_ID":"227197387","RCS_SIZE":"LARGE","OBJECT_NAME":"STARLINK-5204","MEAN_MOTION_DDOT":"0.0000000000000","OBJECT_ID":"2022-136BC","MEAN_MOTION_DOT":"0.00000260","BSTAR":"0.00003443300000","CENTER_NAME":"EARTH","REF_FRAME":"TEME","MEAN_ELEMENT_THEORY":"SGP4","NORAD_CAT_ID":"54101","PERIOD":"95.437","RA_OF_ASC_NODE":"243.4813","SEMIMAJOR_AXIS":"6917.864","TLE_LINE1":"1 54101U 22136BC  23058.78240984  .00000260  00000-0  34433-4 0  9994","SITE":"AFETR","MEAN_ANOMALY":"261.3141","DECAY_DATE":null,"FILE":"3846812","ECCENTRICITY":"0.00009700","EPOCH":"2023-02-27T18:46:40.210176","ELEMENT_SET_NO":"999","TIME_SYSTEM":"UTC","MEAN_MOTION":"15.08845413","TLE_LINE2":"2 54101  53.2182 243.4813 0000970  98.7961 261.3141 15.08845413 20240","APOAPSIS":"540.400","COUNTRY_CODE":"US","EPHEMERIS_TYPE":"0"},{"EPOCH":"2023-02-27T21:40:48.027360","ELEMENT_SET_NO":"999","TIME_SYSTEM":"UTC","ECCENTRICITY":"0.00013850","APOAPSIS":"540.656","EPHEMERIS_TYPE":"0","COUNTRY_CODE":"US","MEAN_MOTION":"15.08855579","TLE_LINE2":"2 54102  53.2160 257.7734 0001385  89.2120 270.9031 15.08855579 20057","RA_OF_ASC_NODE":"257.7734","SEMIMAJOR_AXIS":"6917.833","TLE_LINE1":"1 54102U 22136BD  23058.90333365  .00003695  00000-0  24999-3 0  9995","PERIOD":"95.437","DECAY_DATE":null,"FILE":"3846812","SITE":"AFETR","MEAN_ANOMALY":"270.9031","MEAN_MOTION_DDOT":"0.0000000000000","OBJECT_ID":"2022-136BD","MEAN_MOTION_DOT":"0.00003695","OBJECT_NAME":"STARLINK-5179","NORAD_CAT_ID":"54102","BSTAR":"0.00024999000000","REF_FRAME":"TEME","MEAN_ELEMENT_THEORY":"SGP4","CENTER_NAME":"EARTH","CLASSIFICATION_TYPE":"U","INCLINATION":"53.2160","ARG_OF_PERICENTER":"89.2120","OBJECT_TYPE":"PAYLOAD","REV_AT_EPOCH":"2005","RCS_SIZE":"LARGE","GP_ID":"227198139","PERIAPSIS":"538.740","LAUNCH_DATE":"2022-10-20"},{"TIME_SYSTEM":"UTC","EPOCH":"2023-02-27T21:07:49.931328","ELEMENT_SET_NO":"999","ECCENTRICITY":"0.00012310","COUNTRY_CODE":"US","EPHEMERIS_TYPE":"0","APOAPSIS":"540.600","TLE_LINE2":"2 54103  53.2181 238.3855 0001231  76.6761 283.4368 15.08839030 20327","MEAN_MOTION":"15.08839030","TLE_LINE1":"1 54103U 22136BE  23058.88043902  .00000712  00000-0  62816-4 0  9996","SEMIMAJOR_AXIS":"6917.883","RA_OF_ASC_NODE":"238.3855","PERIOD":"95.438","FILE":"3846812","DECAY_DATE":null,"MEAN_ANOMALY":"283.4368","SITE":"AFETR","MEAN_MOTION_DOT":"0.00000712","OBJECT_ID":"2022-136BE","MEAN_MOTION_DDOT":"0.0000000000000","OBJECT_NAME":"STARLINK-5200","NORAD_CAT_ID":"54103","REF_FRAME":"TEME","MEAN_ELEMENT_THEORY":"SGP4","CENTER_NAME":"EARTH","BSTAR":"0.00006281600000","CLASSIFICATION_TYPE":"U","REV_AT_EPOCH":"2032","OBJECT_TYPE":"PAYLOAD","INCLINATION":"53.2181","ARG_OF_PERICENTER":"76.6761","RCS_SIZE":"LARGE","GP_ID":"227197890","LAUNCH_DATE":"2022-10-20","PERIAPSIS":"538.897"},{"SITE":"AFETR","MEAN_ANOMALY":"130.4452","DECAY_DATE":null,"FILE":"3846812","PERIOD":"93.427","RA_OF_ASC_NODE":"224.6231","SEMIMAJOR_AXIS":"6820.389","TLE_LINE1":"1 54104U 22136BF  23058.91668981 -.01018386  00000-0 -26476-1 0  9999","MEAN_MOTION":"15.41306773","TLE_LINE2":"2 54104  53.2098 224.6231 0001292  74.9278 130.4452 15.41306773  1304","APOAPSIS":"443.135","COUNTRY_CODE":"US","EPHEMERIS_TYPE":"0","ECCENTRICITY":"0.00012920","EPOCH":"2023-02-27T22:00:01.999584","ELEMENT_SET_NO":"999","TIME_SYSTEM":"UTC","PERIAPSIS":"441.372","LAUNCH_DATE":"2022-10-20","RCS_SIZE":"LARGE","GP_ID":"227196638","INCLINATION":"53.2098","ARG_OF_PERICENTER":"74.9278","OBJECT_TYPE":"PAYLOAD","REV_AT_EPOCH":"130","CLASSIFICATION_TYPE":"U","BSTAR":"-0.02647600000000","REF_FRAME":"TEME","MEAN_ELEMENT_THEORY":"SGP4","CENTER_NAME":"EARTH","NORAD_CAT_ID":"54104","OBJECT_NAME":"STARLINK-5203","MEAN_MOTION_DDOT":"0.0000000000000","OBJECT_ID":"2022-136BF","MEAN_MOTION_DOT":"-0.01018386"},{"NORAD_CAT_ID":"54157","BSTAR":"0.00071161000000","MEAN_ELEMENT_THEORY":"SGP4","REF_FRAME":"TEME","CENTER_NAME":"EARTH","MEAN_MOTION_DDOT":"0.0000000000000","OBJECT_ID":"2022-141A","MEAN_MOTION_DOT":"0.00011064","OBJECT_NAME":"STARLINK-5290","RCS_SIZE":"LARGE","GP_ID":"227197393","PERIAPSIS":"538.865","LAUNCH_DATE":"2022-10-28","CLASSIFICATION_TYPE":"U","INCLINATION":"53.2156","ARG_OF_PERICENTER":"75.0388","OBJECT_TYPE":"PAYLOAD","REV_AT_EPOCH":"1878","APOAPSIS":"540.464","EPHEMERIS_TYPE":"0","COUNTRY_CODE":"US","MEAN_MOTION":"15.08866517","TLE_LINE2":"2 54157  53.2156 298.1487 0001156  75.0388 285.0732 15.08866517 18787","EPOCH":"2023-02-27T22:12:40.098240","ELEMENT_SET_NO":"999","TIME_SYSTEM":"UTC","ECCENTRICITY":"0.00011560","DECAY_DATE":null,"FILE":"3846812","SITE":"AFWTR","MEAN_ANOMALY":"285.0732","RA_OF_ASC_NODE":"298.1487","SEMIMAJOR_AXIS":"6917.799","TLE_LINE1":"1 54157U 22141A   23058.92546410  .00011064  00000-0  71161-3 0  9992","PERIOD":"95.436"}];
